#dP2018 11  2  0  0  0.00000000      96 __u+U ITR00 FIT  IAC
## 2025 432000.00000000   900.00000000 58424 0.0000000000000
+   91   C01C02C03C04C05C06C07C08C09C10C11C12C13C14E01E02E03
+        E04E05E07E08E09E11E12E14E18E19E21E24E25E26E27E30G01
+        G02G03G04G05G06G07G08G09G10G11G12G13G14G15G16G17G18
+        G19G20G21G22G23G24G25G26G27G28G29G30G31G32J01J02J03
+        R01R02R03R04R05R07R08R09R10R11R13R14R15R16R17R18R19
+        R20R21R22R23R24R26  0  0  0  0  0  0  0  0  0  0  0
++         0  0  0  0  0  0  0  0  0  0  0  0  0  0  0  0  0
++         0  0  0  0  0  0  0  0  0  0  0  0  0  0  0  0  0
++         0  0  0  0  0  0  0  0  0  0  0  0  0  0  0  0  0
++         0  0  0  0  0  0  0  0  0  0  0  0  0  0  0  0  0
++         0  0  0  0  0  0  0  0  0  0  0  0  0  0  0  0  0
++         0  0  0  0  0  0  0  0  0  0  0  0  0  0  0  0  0
%c M  cc GPS ccc cccc cccc cccc cccc ccccc ccccc ccccc ccccc
%c cc cc ccc ccc cccc cccc cccc cccc ccccc ccccc ccccc ccccc
%f  0.0000000  0.000000000  0.00000000000  0.000000000000000
%f  0.0000000  0.000000000  0.00000000000  0.000000000000000
%i    0    0    0    0      0      0      0      0         0
%i    0    0    0    0      0      0      0      0         0
/*                                                          
/*   RSA / INFORMATION & ANALYSIS CENTER (IAC) OF MCC       
/*   ULTRA-RAPID DETERMINATION                              
/* PCV:IGS14_2022 OL/AL:FES2004  NONE     YN ORB:CoN CLK:CoN
*  2018 11 02  4 15  0.00000000
PC01 -32282.520686  27092.750864   -872.446863   -165.615155
PC02   4479.661689  41912.999875    959.929803    -69.319763
PC03 -14803.017223  39517.768635   -246.620917   -178.503177
PC04 -39624.350901  14345.044763   -389.607607     62.105643
PC05  21944.671535  35998.589644   1213.118469    174.853867
PC06 -10847.645490  35568.728733  20468.428499      8.822600
PC07 -15136.434736  21436.069628 -32921.435387   -122.689676
PC08 -25472.887438  30349.015161  14083.871977     18.261395
PC09    139.607378  42171.024770   3971.524030    249.314126
PC10   1788.648078  26921.021398 -32186.406105   -203.808197
PC11  16628.559665  -1485.140351  22436.970849    -22.981745
PC12   7001.671927  18207.698283  19976.143022    186.295119
PC13 -10847.903572  30959.139457  26354.841848   -355.982031
PC14  21383.465905   9769.824495 -15022.182035    736.709257
PE01 -27715.837565  -9425.936880   4410.908680   -469.018738
PE02  27733.994727   9387.672884  -4349.351339     33.525277
PE03  18086.893373  14251.083081 -18595.048169    -95.054938
PE04 -15589.644662   7470.212607  24027.341392   -150.105166
PE05  10001.105316  27768.882346  -2229.128235    166.618928
PE07   3904.941805 -24991.847770 -15380.171323    -67.686955
PE08  15361.186564  -7637.935760 -24124.560274   6471.083079
PE09  -3615.164928  24972.719289  15463.214132   6630.045454
PE11 -14594.815664  24301.863901   8528.124543   5703.587332
PE12 -23310.069257  14787.544204 -10691.566880   5405.917517
PE14  -5006.944985 -26243.501547 -11021.622044   6495.707171
PE18  -6555.515468  27594.271769  -2019.952089   5787.496139
PE19 -17685.100407 -16148.192670  17394.063759    -10.954673
PE21 -12948.537907 -16858.644526  20607.440302   -502.445146
PE24  -8639.625175  14446.668102 -24348.503690   6410.658680
PE25  12912.245849  16852.072870 -20610.551529   1995.586996
PE26  -2352.201549 -19463.259437 -22179.176836   5295.989674
PE27   9281.932632 -14204.170104  24264.370631    598.879532
PE30  25757.828790  -3496.529995  14162.574090   5383.962353
PG01   2831.444892 -16660.632140 -20580.604495   -108.537107
PG02 -20620.174588  15692.774136   5843.774858    -47.039486
PG03  -7881.360640 -19530.973884 -16261.580708    155.855167
PG04  13174.175616 -12562.784620  18901.171794    -20.381958
PG05 -11942.056313  10338.675633  21252.837390     -0.489382
PG06 -24702.258721   5244.321385  -8232.929077    340.299759
PG07 -13444.099789 -10150.863138  20874.011061     95.979518
PG08   6248.810657 -24991.946774   6148.768089   -120.725500
PG09  -8145.338849 -21144.528905  13811.677818    495.914088
PG10  23471.517419   9636.665005  -8118.383318    168.813711
PG11   4680.574761 -22440.812293 -14138.710279   -704.113602
PG12   2922.721473  18615.239319 -18984.435738    295.281413
PG13 -12539.188848  20290.696647  11543.763345    -85.582392
PG14  15488.968638  -5952.325952 -20397.617177    -96.208448
PG15  -1861.168643  26154.927039   2289.614435   -341.171227
PG16  13818.352835  -6976.702879  21486.266352      1.099812
PG17 -13847.226156  -5070.917817 -21699.126456    -36.702616
PG18  12052.180681 -18418.445251 -15232.474721     74.844142
PG19 -15496.981912   6266.288526 -20961.698747   -387.777987
PG20  22558.849384  14001.686732   1853.241057    518.135257
PG21  16532.662930   7691.605820  20091.858667   -311.345324
PG22   -280.465073 -17579.128441 -19686.748332   -563.004525
PG23  -2557.346264 -25535.482926   6237.361486   -207.254871
PG24  -7162.684437  18327.174574 -17822.561849    -57.602727
PG25  14831.309625  19542.032733 -10657.641407   -670.678294
PG26  20754.584556   -196.209893  16654.149652     27.188281
PG27  11789.627941 -18261.785702  14993.081283    -12.595649
PG28 -21883.239494 -13498.301712  -5894.768536    752.634431
PG29   5255.358784  22484.110811  13100.356689    344.726008
PG30 -22027.961665  -2674.856086  14740.590786      1.396162
PG31  25375.039582  -6520.159611  -5578.244613     82.574589
PG32  15070.892882   2767.201122 -21659.310405   -372.195774
PJ01 -23708.833350  24567.891298  29786.115248   -284.098304
PJ02 -33140.646488  17106.933656 -15128.811600      0.512863
PJ03 -20600.825201  30799.515116 -15611.465698      0.592415
PR01  14316.986350  20278.294945  -5844.664254     34.347757
PR02  13626.728405   4479.821237 -21074.980344    337.490662
PR03   4759.695462 -12897.221627 -21444.253917    147.669649
PR04  -7258.652383 -22765.978500  -8895.622841    282.182766
PR05 -14551.311553 -19339.265320   8028.988540     14.505698
PR07  -4460.414809  13341.367629  21314.769937    -50.680359
PR08   6753.948735  22655.800495   9632.425393     20.653554
PR09 -25274.370781    615.058515  -3636.392087     36.544321
PR10 -16497.224969   7490.412272 -18007.974384     34.757804
PR11   2740.460018  11069.426535 -22791.898161    -45.778547
PR13  25329.523946   -612.679090   2904.409238    -16.361183
PR14  16412.987277  -7796.292652  17913.539652     32.584418
PR15   2484.579023 -10566.232279  23101.791581    -18.607339
PR16 -19117.523715  -7647.881425  14965.834847    105.377304
PR17  15268.002394 -19906.946251   4748.450200    177.075160
PR18   7064.864758 -21296.875839 -12071.411932     26.818654
PR19  -4755.068867 -11104.915053 -22467.578036    -61.202570
PR20 -15075.711689   6848.303040 -19411.488506   -357.660320
PR21 -15095.682964  20090.191431  -4275.554340    -12.234363
PR22  -5683.996200  20592.674341  14034.029325    -64.809189
PR23   7943.904486   7044.423792  23185.343361    188.112946
PR24  15310.649301  -8269.753344  18624.022973   -173.282338
PR26 -14440.252610   5575.275198 -20252.580715     27.451195
EOF
